2022-072D               
1 52938U 22072D   22182.10135734  .00002312  00000+0  10000-3 0  9990
2 52938   9.8997  72.2486 0024259 193.5521 166.3691 15.06369760    92
2022-072E               
1 52939U 22072E   22182.96413808  .00004670  00000+0  27659-3 0  9993
2 52939   9.9536  65.8435 0036176 330.7870  29.0353 15.03095612   222
NOAA 1 [-]              
1 04793U 70106A   22182.77489543 -.00000025  00000+0  11849-3 0  9992
2 04793 101.5556 246.2221 0031067 294.6492 179.9504 12.54005876359381
NOAA 2 (ITOS-D) [-]     
1 06235U 72082A   22182.91097267 -.00000034  00000+0  77929-4 0  9996
2 06235 101.9526 165.2343 0004497  50.4287   5.0052 12.53148477273787
NOAA 3 [-]              
1 06920U 73086A   22182.90232821 -.00000054  00000+0 -59554-4 0  9995
2 06920 102.2075 164.4785 0006021 265.6873 149.5070 12.40347732202583
NOAA 4 [-]              
1 07529U 74089A   22182.89000146 -.00000036  00000+0  64663-4 0  9992
2 07529 101.9129 162.5689 0009497  76.3696 338.0893 12.53158446178358
NOAA 5 [-]              
1 09057U 76077A   22182.86547447 -.00000029  00000+0  12052-3 0  9992
2 09057 102.0982 150.7006 0010232 110.4004 315.8115 12.37772087 75529
TIROS N [-]             
1 11060U 78096A   22182.73757852  .00000044  00000+0  41797-4 0  9996
2 11060  98.6344 236.1022 0011797 101.7763 258.4737 14.18394581473633
NOAA 6 [-]              
1 11416U 79057A   22182.77870997  .00000058  00000+0  37012-4 0  9999
2 11416  98.6629 193.6559 0009622 210.9635 149.0983 14.33767193243577
NOAA 7 [-]              
1 12553U 81059A   22182.84365006 -.00000017  00000+0  14119-4 0  9994
2 12553  98.9978 227.4386 0012527  76.6680 283.5890 14.17334742119833
NOAA 8 [-]              
1 13923U 83022A   22182.85230071  .00000017  00000+0  24324-4 0  9990
2 13923  98.6864 173.3398 0015349 163.1667 197.0027 14.28813514 44468
NOAA 9 [-]              
1 15427U 84123A   22182.86379991  .00000007  00000+0  26717-4 0  9997
2 15427  99.0456 155.4746 0015705 122.2687 297.7684 14.16206394938652
NOAA 10 [-]             
1 16969U 86073A   22182.88343328  .00000020  00000+0  25583-4 0  9997
2 16969  98.5675 168.7722 0010983 270.9391 147.2266 14.28205005862896
NOAA 11 [-]             
1 19531U 88089A   22182.90586774 -.00000016  00000+0  12566-4 0  9994
2 19531  98.4239 171.1941 0012011 132.8583 227.3603 14.15312891742860
NOAA 12 [-]             
1 21263U 91032A   22182.87641447  .00000030  00000+0  30490-4 0  9997
2 21263  98.5133 182.2943 0012574 300.0708  59.9225 14.25997415618780
NOAA 13 [-]             
1 22739U 93050A   22182.89351763  .00000019  00000+0  32162-4 0  9994
2 22739  98.5046 161.9741 0008549 307.1883  52.8509 14.12847188489095
NOAA 14 [-]             
1 23455U 94089A   22182.84659486 -.00000012  00000+0  15316-4 0  9997
2 23455  98.4466 208.7707 0008286 285.1593  74.8664 14.14199959418747
NOAA 15 [B]             
1 25338U 98030A   22183.15327310  .00000126  00000+0  71098-4 0  9996
2 25338  98.6427 212.4959 0009212 252.6451 107.3722 14.26144988255360
NOAA 16 [-]             
1 26536U 00055A   22182.83934973  .00000001  00000+0  23205-4 0  9999
2 26536  98.6355 241.2444 0011545 121.8793 238.3505 14.13332354419388
NOAA 17 [-]             
1 27453U 02032A   22182.82556941  .00000037  00000+0  34356-4 0  9997
2 27453  98.6722 127.9184 0010906 226.6808 133.3463 14.25125838 40902
NOAA 18 [B]             
1 28654U 05018A   22183.14995220  .00000117  00000+0  87293-4 0  9998
2 28654  98.9486 253.5741 0013169 291.2014  68.7750 14.12748216882149
NOAA 19 [+]             
1 33591U 09005A   22183.15292743  .00000118  00000+0  88911-4 0  9994
2 33591  99.1464 217.5979 0014584 143.6410 216.5754 14.12582858690523
SUOMI NPP [+]           
1 37849U 11061A   22182.86163426  .00000031  00000+0  35697-4 0  9998
2 37849  98.7330 121.2141 0001074  87.3829 338.1962 14.19531172553249
NOAA 20 [+]             
1 43013U 17073A   22183.09565900  .00000019  00000+0  29846-4 0  9991
2 43013  98.7169 121.4212 0001444  69.9028 290.2303 14.19559540239302
CELESTIS-02             
1 25160U 98007D   22183.17645948 -.00000063  00000+0  29472-4 0  9995
2 25160 107.9833 296.3899 0060825  84.9332 338.9399 14.21631186265171
CELESTIS-03             
1 26034U 99070C   22182.86737044  .00006725  00000+0  32233-3 0  9999
2 26034  98.3107 190.2643 0012196  82.9238 277.3380 15.19245434223264
O3B FM5                 
1 39188U 13031A   22182.46622321 -.00000020  00000+0  00000+0 0  9999
2 39188   0.0480  26.9008 0002400 105.1565 227.9621  4.99968348164669
O3B FM4                 
1 39189U 13031B   22182.51905113 -.00000020  00000+0  00000+0 0  9999
2 39189   0.0580 358.5481 0002167 143.5480 217.9182  4.99927695164685
O3B FM2                 
1 39190U 13031C   22182.77583421 -.00000019  00000+0  00000+0 0  9991
2 39190   0.0619 355.1940 0001235  81.1219 283.6969  4.99476770164759
O3B PFM                 
1 39191U 13031D   22182.04362964 -.00000020  00000+0  00000+0 0  9991
2 39191   0.0483  16.2756 0002654  83.5901 260.1633  5.00115751164276
O3B FM3                 
1 40079U 14038A   22182.49813816 -.00000020  00000+0  00000+0 0  9992
2 40079   0.0546   5.6077 0005061  97.3154 257.1325  5.00115423140677
O3B FM7                 
1 40080U 14038B   22182.24432012 -.00000020  00000+0  00000+0 0  9992
2 40080   0.0589   4.6181 0000805 112.0242 243.3650  5.00115482145493
O3B FM6                 
1 40081U 14038C   22182.67047500 -.00000020  00000+0  00000+0 0  9994
2 40081   0.0543   4.4987 0002682  97.1238 258.4067  5.00115483145466
O3B FM8                 
1 40082U 14038D   22182.72444031 -.00000019  00000+0  00000+0 0  9999
2 40082   0.0550   1.2031 0002726  97.2477 261.5792  5.00115658145582
O3B FM10                
1 40348U 14083A   22182.55052655 -.00000020  00000+0  00000+0 0  9994
2 40348   0.0469  10.3424 0002638  89.8051 259.8813  5.00115184137523
O3B FM11                
1 40349U 14083B   22182.56402041 -.00000020  00000+0  00000+0 0  9994
2 40349   0.0506  13.5786 0002123  98.9995 247.4434  5.00115402137546
O3B FM12                
1 40350U 14083C   22182.59120855 -.00000020  00000+0  00000+0 0  9999
2 40350   0.0506  12.5274 0002653  91.4281 256.0731  5.00115297137552
O3B FM9                 
1 40351U 14083D   22182.21839435 -.00000020  00000+0  00000+0 0  9990
2 40351   0.0514  14.5855 0002587  86.2230 259.2197  5.00115664137684
DIAMOND RED             
1 42783U 17036U   22182.86256519  .00003631  00000+0  13681-3 0  9992
2 42783  97.1977 223.1645 0008463 279.2645  80.7637 15.27671649279147
DIAMOND GREEN           
1 42785U 17036W   22182.86113030  .00002534  00000+0  96392-4 0  9996
2 42785  97.1982 223.2282 0008301 280.9059  79.1246 15.27635690279214
DIAMOND BLUE            
1 42786U 17036X   22182.53269547  .00001708  00000+0  65839-4 0  9990
2 42786  97.1982 222.9029 0008336 282.6001  77.4306 15.27624562279162
LEO VANTAGE 1           
1 43113U 18004C   22182.73492903  .00001533  00000+0  12828-3 0  9992
2 43113  99.2469 264.2719 0402323 148.3285 214.2808 14.53844947226317
O3B FM15                
1 43231U 18024A   22182.48426532 -.00000020  00000+0  00000+0 0  9998
2 43231   0.0438   8.1355 0002861  95.6494 256.2459  5.00116070 78655
O3B FM16                
1 43232U 18024B   22182.13785405 -.00000020  00000+0  00000+0 0  9998
2 43232   0.0399   6.1353 0002828  97.6607 256.2345  5.00115920 78555
O3B FM14                
1 43233U 18024C   22182.77707030 -.00000019  00000+0  00000+0 0  9995
2 43233   0.0388   4.5290 0002633  99.7075 255.7918  5.00115303 78591
O3B FM13                
1 43234U 18024D   22181.83109411 -.00000021  00000+0  00000+0 0  9994
2 43234   0.0435  44.3472 0003433  71.7972 243.8898  5.00115217 78661
O3B FM20                
1 44112U 19020A   22181.20468132 -.00000022  00000+0  00000+0 0  9997
2 44112   0.0470   9.6211 0002785 100.2527 250.1552  5.00115464 59137
O3B FM19                
1 44113U 19020B   22182.23086430 -.00000020  00000+0  00000+0 0  9997
2 44113   0.0504  27.0826 0001744  68.0065 264.9298  5.00115177 59056
O3B FM17                
1 44114U 19020C   22181.51189721 -.00000021  00000+0  00000+0 0  9996
2 44114   0.0478 345.6873 0002948 118.5544 255.7900  5.00115595 59106
O3B FM18                
1 44115U 19020D   22182.65779115 -.00000019  00000+0  00000+0 0  9992
2 44115   0.0471  10.0274 0002883  91.4074 258.5966  5.00115784 59285
SALSAT                  
1 46495U 20068K   22182.79471786  .00001225  00000+0  91655-4 0  9997
2 46495  97.7295 124.0996 0015385 226.0303 133.9655 15.04556969 96342
ISS (ZARYA)             
1 25544U 98067A   22183.01302083  .00006367  00000+0  12030-3 0  9993
2 25544  51.6441 263.1601 0004533 322.4440  30.9238 15.49791741347474
SIMPL                   
1 42983U 98067NF  22183.15568220  .00207551  30451-4  30549-3 0  9992
2 42983  51.6264 102.8411 0002187  77.2398 282.8858 16.04572285267290
AEROCUBE 12A            
1 43556U 18046C   22183.04354583  .00008424  00000+0  21954-3 0  9991
2 43556  51.6369 112.7186 0008297  87.0269 273.1665 15.39687020221566
AEROCUBE 12B            
1 43557U 18046D   22182.86901361  .00005883  00000+0  16680-3 0  9999
2 43557  51.6382 118.2330 0008345  83.1377 277.0556 15.37673793221422
LEMUR-2-VU              
1 43558U 18046E   22183.15496403  .00020763  00000+0  40465-3 0  9991
2 43558  51.6384  93.6463 0008780  93.3349 266.8643 15.47460564221821
LEMUR-2-ALEXANDER       
1 43559U 18046F   22182.78706804  .00022210  00000+0  42086-3 0  9999
2 43559  51.6378  93.4690 0009195  93.9122 266.2917 15.48222536221577
LEMUR-2-YUASA           
1 43560U 18046G   22183.05952048  .00020985  00000+0  40854-3 0  9993
2 43560  51.6386  94.5117 0009135  98.7820 261.4202 15.47480763221803
LEMUR-2-TOMHENDERSON    
1 43561U 18046H   22182.60903616  .00015628  00000+0  32680-3 0  9997
2 43561  51.6392  99.7100 0008469 101.2086 258.9853 15.45624360221256
